[
  {
    "OBJECT_NAME": "SAUDISAT 5A",
    "OBJECT_ID": "2018-102A",
    "EPOCH": "2025-05-31T20:43:28.290432",
    "MEAN_MOTION": 15.22988877,
    "ECCENTRICITY": 0.0011914,
    "INCLINATION": 97.3578,
    "RA_OF_ASC_NODE": 215.9024,
    "ARG_OF_PERICENTER": 47.7408,
    "MEAN_ANOMALY": 312.4838,
    "EPHEMERIS_TYPE": 0,
    "CLASSIFICATION_TYPE": "U",
    "NORAD_CAT_ID": 43831,
    "ELEMENT_SET_NO": 999,
    "REV_AT_EPOCH": 35754,
    "BSTAR": 0.00022628,
    "MEAN_MOTION_DOT": 5.259e-05,
    "MEAN_MOTION_DDOT": 0
  },
  {
    "OBJECT_NAME": "SAUDISAT 5B",
    "OBJECT_ID": "2018-102C",
    "EPOCH": "2025-05-31T20:09:48.105504",
    "MEAN_MOTION": 15.23438936,
    "ECCENTRICITY": 0.001267,
    "INCLINATION": 97.3658,
    "RA_OF_ASC_NODE": 218.278,
    "ARG_OF_PERICENTER": 50.0534,
    "MEAN_ANOMALY": 310.1814,
    "EPHEMERIS_TYPE": 0,
    "CLASSIFICATION_TYPE": "U",
    "NORAD_CAT_ID": 43833,
    "ELEMENT_SET_NO": 999,
    "REV_AT_EPOCH": 35764,
    "BSTAR": 0.00020869,
    "MEAN_MOTION_DOT": 4.911e-05,
    "MEAN_MOTION_DDOT": 0
  },
  {
    "OBJECT_NAME": "GAOFEN-10R",
    "OBJECT_ID": "2019-066A",
    "EPOCH": "2025-05-31T20:03:01.459584",
    "MEAN_MOTION": 14.8263955,
    "ECCENTRICITY": 0.0004541,
    "INCLINATION": 98.0043,
    "RA_OF_ASC_NODE": 98.9281,
    "ARG_OF_PERICENTER": 313.4935,
    "MEAN_ANOMALY": 46.59,
    "EPHEMERIS_TYPE": 0,
    "CLASSIFICATION_TYPE": "U",
    "NORAD_CAT_ID": 44622,
    "ELEMENT_SET_NO": 999,
    "REV_AT_EPOCH": 30586,
    "BSTAR": 0.00018818,
    "MEAN_MOTION_DOT": 1.462e-05,
    "MEAN_MOTION_DDOT": 0
  },
  {
    "OBJECT_NAME": "CARTOSAT-3",
    "OBJECT_ID": "2019-081A",
    "EPOCH": "2025-05-31T19:16:13.871712",
    "MEAN_MOTION": 15.19229671,
    "ECCENTRICITY": 0.0014439,
    "INCLINATION": 97.4809,
    "RA_OF_ASC_NODE": 213.4973,
    "ARG_OF_PERICENTER": 50.7022,
    "MEAN_ANOMALY": 309.5491,
    "EPHEMERIS_TYPE": 0,
    "CLASSIFICATION_TYPE": "U",
    "NORAD_CAT_ID": 44804,
    "ELEMENT_SET_NO": 999,
    "REV_AT_EPOCH": 30551,
    "BSTAR": 0.00019744,
    "MEAN_MOTION_DOT": 4.1e-05,
    "MEAN_MOTION_DDOT": 0
  },
  {
    "OBJECT_NAME": "GAOFEN-12 01",
    "OBJECT_ID": "2019-082A",
    "EPOCH": "2025-05-31T19:48:40.639104",
    "MEAN_MOTION": 14.80389327,
    "ECCENTRICITY": 0.0003376,
    "INCLINATION": 97.8133,
    "RA_OF_ASC_NODE": 163.1857,
    "ARG_OF_PERICENTER": 139.8754,
    "MEAN_ANOMALY": 220.2709,
    "EPHEMERIS_TYPE": 0,
    "CLASSIFICATION_TYPE": "U",
    "NORAD_CAT_ID": 44819,
    "ELEMENT_SET_NO": 999,
    "REV_AT_EPOCH": 29766,
    "BSTAR": 6.6967e-05,
    "MEAN_MOTION_DOT": 4.61e-06,
    "MEAN_MOTION_DDOT": 0
  },
  {
    "OBJECT_NAME": "CSG-1",
    "OBJECT_ID": "2019-092A",
    "EPOCH": "2025-05-31T19:40:00.511104",
    "MEAN_MOTION": 14.82155055,
    "ECCENTRICITY": 0.0001519,
    "INCLINATION": 97.8875,
    "RA_OF_ASC_NODE": 335.9542,
    "ARG_OF_PERICENTER": 86.9317,
    "MEAN_ANOMALY": 273.2069,
    "EPHEMERIS_TYPE": 0,
    "CLASSIFICATION_TYPE": "U",
    "NORAD_CAT_ID": 44873,
    "ELEMENT_SET_NO": 999,
    "REV_AT_EPOCH": 29498,
    "BSTAR": 7.5236e-05,
    "MEAN_MOTION_DOT": 5.47e-06,
    "MEAN_MOTION_DDOT": 0
  },
  {
    "OBJECT_NAME": "NEMO-HD",
    "OBJECT_ID": "2020-061F",
    "EPOCH": "2025-05-31T20:55:16.385952",
    "MEAN_MOTION": 15.35911467,
    "ECCENTRICITY": 0.0001563,
    "INCLINATION": 97.2446,
    "RA_OF_ASC_NODE": 213.8059,
    "ARG_OF_PERICENTER": 61.4718,
    "MEAN_ANOMALY": 298.6683,
    "EPHEMERIS_TYPE": 0,
    "CLASSIFICATION_TYPE": "U",
    "NORAD_CAT_ID": 46277,
    "ELEMENT_SET_NO": 999,
    "REV_AT_EPOCH": 26329,
    "BSTAR": 0.00023837,
    "MEAN_MOTION_DOT": 8.253e-05,
    "MEAN_MOTION_DDOT": 0
  },
  {
    "OBJECT_NAME": "SENTINEL-6",
    "OBJECT_ID": "2020-086A",
    "EPOCH": "2025-05-31T12:40:53.683968",
    "MEAN_MOTION": 12.80930612,
    "ECCENTRICITY": 0.0008066,
    "INCLINATION": 66.0404,
    "RA_OF_ASC_NODE": 207.7638,
    "ARG_OF_PERICENTER": 270.4843,
    "MEAN_ANOMALY": 89.5248,
    "EPHEMERIS_TYPE": 0,
    "CLASSIFICATION_TYPE": "U",
    "NORAD_CAT_ID": 46984,
    "ELEMENT_SET_NO": 999,
    "REV_AT_EPOCH": 21144,
    "BSTAR": 5.7295e-05,
    "MEAN_MOTION_DOT": -4.8e-07,
    "MEAN_MOTION_DDOT": 0
  },
  {
    "OBJECT_NAME": "GAOFEN-12 02",
    "OBJECT_ID": "2021-026A",
    "EPOCH": "2025-05-31T21:25:51.977280",
    "MEAN_MOTION": 14.80398152,
    "ECCENTRICITY": 0.0003112,
    "INCLINATION": 97.9732,
    "RA_OF_ASC_NODE": 146.9769,
    "ARG_OF_PERICENTER": 47.3305,
    "MEAN_ANOMALY": 312.8169,
    "EPHEMERIS_TYPE": 0,
    "CLASSIFICATION_TYPE": "U",
    "NORAD_CAT_ID": 48079,
    "ELEMENT_SET_NO": 999,
    "REV_AT_EPOCH": 22534,
    "BSTAR": 6.951e-05,
    "MEAN_MOTION_DOT": 4.78e-06,
    "MEAN_MOTION_DDOT": 0
  },
  {
    "OBJECT_NAME": "PLEIADES NEO 3",
    "OBJECT_ID": "2021-034A",
    "EPOCH": "2025-05-31T21:32:07.251360",
    "MEAN_MOTION": 14.81668208,
    "ECCENTRICITY": 0.0001645,
    "INCLINATION": 97.8943,
    "RA_OF_ASC_NODE": 227.1328,
    "ARG_OF_PERICENTER": 106.589,
    "MEAN_ANOMALY": 253.5503,
    "EPHEMERIS_TYPE": 0,
    "CLASSIFICATION_TYPE": "U",
    "NORAD_CAT_ID": 48268,
    "ELEMENT_SET_NO": 999,
    "REV_AT_EPOCH": 22119,
    "BSTAR": 0.00018137,
    "MEAN_MOTION_DOT": 1.375e-05,
    "MEAN_MOTION_DDOT": 0
  },
  {
    "OBJECT_NAME": "PLEIADES NEO 4",
    "OBJECT_ID": "2021-073E",
    "EPOCH": "2025-05-31T20:43:28.734528",
    "MEAN_MOTION": 14.81675561,
    "ECCENTRICITY": 0.0001676,
    "INCLINATION": 97.8942,
    "RA_OF_ASC_NODE": 227.0968,
    "ARG_OF_PERICENTER": 98.2717,
    "MEAN_ANOMALY": 261.8686,
    "EPHEMERIS_TYPE": 0,
    "CLASSIFICATION_TYPE": "U",
    "NORAD_CAT_ID": 49070,
    "ELEMENT_SET_NO": 999,
    "REV_AT_EPOCH": 20490,
    "BSTAR": 0.00016064,
    "MEAN_MOTION_DOT": 1.212e-05,
    "MEAN_MOTION_DDOT": 0
  },
  {
    "OBJECT_NAME": "LANDSAT 9",
    "OBJECT_ID": "2021-088A",
    "EPOCH": "2025-05-31T19:20:40.044192",
    "MEAN_MOTION": 14.57115201,
    "ECCENTRICITY": 0.0001246,
    "INCLINATION": 98.228,
    "RA_OF_ASC_NODE": 222.4782,
    "ARG_OF_PERICENTER": 104.0343,
    "MEAN_ANOMALY": 256.0994,
    "EPHEMERIS_TYPE": 0,
    "CLASSIFICATION_TYPE": "U",
    "NORAD_CAT_ID": 49260,
    "ELEMENT_SET_NO": 999,
    "REV_AT_EPOCH": 19545,
    "BSTAR": 0.00014221,
    "MEAN_MOTION_DOT": 5.95e-06,
    "MEAN_MOTION_DDOT": 0
  },
  {
    "OBJECT_NAME": "CSG-2",
    "OBJECT_ID": "2022-008A",
    "EPOCH": "2025-05-31T18:51:23.504544",
    "MEAN_MOTION": 14.82158437,
    "ECCENTRICITY": 0.0001396,
    "INCLINATION": 97.8876,
    "RA_OF_ASC_NODE": 335.922,
    "ARG_OF_PERICENTER": 90.619,
    "MEAN_ANOMALY": 269.5183,
    "EPHEMERIS_TYPE": 0,
    "CLASSIFICATION_TYPE": "U",
    "NORAD_CAT_ID": 51444,
    "ELEMENT_SET_NO": 999,
    "REV_AT_EPOCH": 18009,
    "BSTAR": 5.2536e-05,
    "MEAN_MOTION_DOT": 3.66e-06,
    "MEAN_MOTION_DDOT": 0
  },
  {
    "OBJECT_NAME": "GAOFEN-12 03",
    "OBJECT_ID": "2022-069A",
    "EPOCH": "2025-05-31T21:17:51.946656",
    "MEAN_MOTION": 14.80627295,
    "ECCENTRICITY": 0.00012,
    "INCLINATION": 97.8723,
    "RA_OF_ASC_NODE": 43.3139,
    "ARG_OF_PERICENTER": 80.6961,
    "MEAN_ANOMALY": 279.4387,
    "EPHEMERIS_TYPE": 0,
    "CLASSIFICATION_TYPE": "U",
    "NORAD_CAT_ID": 52912,
    "ELEMENT_SET_NO": 999,
    "REV_AT_EPOCH": 15821,
    "BSTAR": 0.0001895,
    "MEAN_MOTION_DOT": 1.403e-05,
    "MEAN_MOTION_DDOT": 0
  },
  {
    "OBJECT_NAME": "SWOT",
    "OBJECT_ID": "2022-173A",
    "EPOCH": "2025-05-31T20:25:55.650720",
    "MEAN_MOTION": 14.00170463,
    "ECCENTRICITY": 8.67e-05,
    "INCLINATION": 77.6095,
    "RA_OF_ASC_NODE": 190.0738,
    "ARG_OF_PERICENTER": 201.6298,
    "MEAN_ANOMALY": 158.4817,
    "EPHEMERIS_TYPE": 0,
    "CLASSIFICATION_TYPE": "U",
    "NORAD_CAT_ID": 54754,
    "ELEMENT_SET_NO": 999,
    "REV_AT_EPOCH": 12578,
    "BSTAR": 7.5714e-05,
    "MEAN_MOTION_DOT": 1.09e-06,
    "MEAN_MOTION_DDOT": 0
  },
  {
    "OBJECT_NAME": "GAOFEN-12 04",
    "OBJECT_ID": "2023-123A",
    "EPOCH": "2025-05-31T20:26:11.100768",
    "MEAN_MOTION": 14.80618566,
    "ECCENTRICITY": 0.0002176,
    "INCLINATION": 97.9113,
    "RA_OF_ASC_NODE": 70.4988,
    "ARG_OF_PERICENTER": 114.0954,
    "MEAN_ANOMALY": 246.0486,
    "EPHEMERIS_TYPE": 0,
    "CLASSIFICATION_TYPE": "U",
    "NORAD_CAT_ID": 57654,
    "ELEMENT_SET_NO": 999,
    "REV_AT_EPOCH": 9622,
    "BSTAR": 0.00017324,
    "MEAN_MOTION_DOT": 1.278e-05,
    "MEAN_MOTION_DDOT": 0
  },
  {
    "OBJECT_NAME": "PARS 1",
    "OBJECT_ID": "2024-039Q",
    "EPOCH": "2025-05-31T21:52:38.733024",
    "MEAN_MOTION": 15.36372613,
    "ECCENTRICITY": 0.0013175,
    "INCLINATION": 97.4394,
    "RA_OF_ASC_NODE": 119.8385,
    "ARG_OF_PERICENTER": 55.3427,
    "MEAN_ANOMALY": 304.9056,
    "EPHEMERIS_TYPE": 0,
    "CLASSIFICATION_TYPE": "U",
    "NORAD_CAT_ID": 59065,
    "ELEMENT_SET_NO": 999,
    "REV_AT_EPOCH": 6993,
    "BSTAR": 0.00025273,
    "MEAN_MOTION_DOT": 8.908e-05,
    "MEAN_MOTION_DDOT": 0
  },
  {
    "OBJECT_NAME": "RESURS-P 4",
    "OBJECT_ID": "2024-061A",
    "EPOCH": "2025-05-31T20:57:21.515616",
    "MEAN_MOTION": 15.32023824,
    "ECCENTRICITY": 7.43e-05,
    "INCLINATION": 97.2306,
    "RA_OF_ASC_NODE": 102.4267,
    "ARG_OF_PERICENTER": 54.3515,
    "MEAN_ANOMALY": 305.7796,
    "EPHEMERIS_TYPE": 0,
    "CLASSIFICATION_TYPE": "U",
    "NORAD_CAT_ID": 59371,
    "ELEMENT_SET_NO": 999,
    "REV_AT_EPOCH": 6536,
    "BSTAR": 0.0001197,
    "MEAN_MOTION_DOT": 3.625e-05,
    "MEAN_MOTION_DDOT": 0
  },
  {
    "OBJECT_NAME": "LEGION 1",
    "OBJECT_ID": "2024-081A",
    "EPOCH": "2025-05-31T12:54:09.727776",
    "MEAN_MOTION": 15.16654254,
    "ECCENTRICITY": 0.0005518,
    "INCLINATION": 97.5363,
    "RA_OF_ASC_NODE": 227.4876,
    "ARG_OF_PERICENTER": 84.7848,
    "MEAN_ANOMALY": 275.4015,
    "EPHEMERIS_TYPE": 0,
    "CLASSIFICATION_TYPE": "U",
    "NORAD_CAT_ID": 59625,
    "ELEMENT_SET_NO": 999,
    "REV_AT_EPOCH": 5968,
    "BSTAR": 0.0002258,
    "MEAN_MOTION_DOT": 4.352e-05,
    "MEAN_MOTION_DDOT": 0
  }
]